[{"OBJECT_NAME":"LYNK TOWER 5","OBJECT_ID":"2024-043Z","EPOCH":"2026-03-09T22:11:51.175104","MEAN_MOTION":15.29454506,"ECCENTRICITY":0.00104056,"INCLINATION":97.5458,"RA_OF_ASC_NODE":204.7305,"ARG_OF_PERICENTER":234.6422,"MEAN_ANOMALY":125.3846,"EPHEMERIS_TYPE":0,"CLASSIFICATION_TYPE":"U","NORAD_CAT_ID":59121,"ELEMENT_SET_NO":999,"REV_AT_EPOCH":11186,"BSTAR":0.00031901545,"MEAN_MOTION_DOT":9.048e-5,"MEAN_MOTION_DDOT":0},{"OBJECT_NAME":"STARLINK-34208","OBJECT_ID":"2025-144S","EPOCH":"2026-03-09T12:55:07.013568","MEAN_MOTION":15.30211693,"ECCENTRICITY":0.000144,"INCLINATION":53.1575,"RA_OF_ASC_NODE":179.2599,"ARG_OF_PERICENTER":129.4289,"MEAN_ANOMALY":230.6839,"EPHEMERIS_TYPE":0,"CLASSIFICATION_TYPE":"U","NORAD_CAT_ID":64740,"ELEMENT_SET_NO":999,"REV_AT_EPOCH":3972,"BSTAR":0.00079748045,"MEAN_MOTION_DOT":0.00023343,"MEAN_MOTION_DDOT":0}]
